<?xml version="1.0" encoding="UTF-8"?>
<kml xmlns="http://www.opengis.net/kml/2.2"><Document>
<name>GPS Trip</name><Placemark><LineString><tessellate>1</tessellate>
<coordinates>
5.2904600,52.2163873,10.59
5.2904600,52.2163873,10.59
5.2904600,52.2163873,10.59
5.2904600,52.2163873,10.59
5.2904600,52.2163873,10.59
5.2904600,52.2163873,10.59
5.2904600,52.2163873,10.59
5.2904600,52.2163873,10.59
5.2904600,52.2163873,10.59
5.2904600,52.2163873,10.59
5.2904600,52.2163873,10.59
5.2904600,52.2163873,10.59
5.2904600,52.2163873,10.59
5.2904600,52.2163873,10.59
5.2904600,52.2163873,10.59
5.2904600,52.2163873,10.59
5.2904600,52.2163873,10.59
5.2904600,52.2163873,10.59
5.2904600,52.2163873,10.59
5.2904600,52.2163873,10.59
5.2904600,52.2163873,10.59
5.2904600,52.2163873,10.59
5.2904600,52.2163873,10.59
5.2904600,52.2163873,10.59
5.2904600,52.2163873,10.59
5.2904600,52.2163873,10.59
5.2904600,52.2163873,10.59
5.2904600,52.2163873,10.59
5.2904600,52.2163873,10.59
5.2904600,52.2163873,10.59
</coordinates></LineString></Placemark></Document></kml>
