<?xml version="1.0" encoding="UTF-8"?>
<kml xmlns="http://www.opengis.net/kml/2.2"><Document>
<name>GPS Trip</name><Placemark><LineString><tessellate>1</tessellate>
<coordinates>
5.2893327,52.2174205,9.66
5.2892600,52.2174658,7.48
5.2891427,52.2174893,7.63
5.2890223,52.2174842,8.83
5.2889025,52.2175080,12.36
5.2887720,52.2175113,16.74
5.2886602,52.2175377,12.10
5.2885325,52.2175520,14.39
5.2884515,52.2176122,18.38
5.2883412,52.2176393,14.17
5.2882233,52.2176633,15.09
5.2880993,52.2176847,16.22
5.2879788,52.2177035,18.17
5.2878540,52.2177018,21.48
5.2877267,52.2177135,23.69
5.2876160,52.2177440,30.78
5.2875328,52.2177950,23.46
5.2875907,52.2178503,19.72
5.2876060,52.2179220,19.37
5.2875963,52.2179930,21.85
5.2875857,52.2180660,23.99
5.2876125,52.2181332,21.54
5.2875507,52.2181950,19.87
5.2875030,52.2182635,21.15
5.2874845,52.2183430,21.39
5.2874685,52.2184223,21.35
5.2874010,52.2184798,15.47
5.2873067,52.2185212,19.29
5.2872025,52.2184955,13.64
5.2870963,52.2185053,13.00
5.2870300,52.2185623,13.20
5.2870098,52.2186310,12.29
5.2869985,52.2187023,13.13
5.2870297,52.2187705,11.02
5.2870533,52.2188358,10.70
5.2870805,52.2189003,8.58
5.2870870,52.2189733,6.06
5.2870155,52.2190275,8.59
5.2868983,52.2190188,10.22
5.2867772,52.2190112,6.97
5.2866638,52.2190175,8.33
5.2865495,52.2190342,7.86
5.2864522,52.2190530,6.51
5.2863565,52.2190865,9.47
5.2862673,52.2191257,9.28
5.2861767,52.2191618,8.87
5.2860705,52.2191835,7.91
5.2859613,52.2192028,7.44
5.2858497,52.2192157,8.73
5.2857500,52.2192525,10.85
5.2857043,52.2193157,12.14
5.2856255,52.2193600,10.96
5.2855147,52.2193798,11.52
5.2854075,52.2194048,12.09
5.2852992,52.2194247,11.80
5.2851968,52.2194518,12.00
5.2850943,52.2194880,12.59
5.2849762,52.2195110,14.53
5.2848670,52.2195198,15.53
5.2847560,52.2195368,14.80
5.2846528,52.2195562,12.87
5.2845537,52.2195792,10.55
5.2844538,52.2196023,9.85
5.2843432,52.2196048,10.16
5.2842248,52.2196155,8.58
5.2841047,52.2196142,10.22
5.2840155,52.2196173,10.93
5.2839083,52.2196252,8.76
5.2838078,52.2196730,6.50
5.2837157,52.2197115,6.06
5.2836088,52.2197057,7.18
5.2835055,52.2197017,6.84
5.2833910,52.2196975,6.09
5.2832802,52.2197002,6.48
5.2831770,52.2197242,5.70
5.2830638,52.2197257,4.57
5.2829463,52.2197230,3.55
5.2828515,52.2197203,3.95
5.2827542,52.2197560,2.83
5.2827652,52.2198220,2.61
5.2827767,52.2198913,3.11
5.2827758,52.2199595,4.20
5.2827722,52.2200340,4.57
5.2827817,52.2201005,5.47
5.2827878,52.2201710,6.38
5.2827883,52.2202410,5.61
5.2827962,52.2203032,6.84
5.2827977,52.2203710,3.62
5.2827967,52.2204348,1.93
5.2828082,52.2204995,0.99
5.2828048,52.2205643,2.02
5.2828113,52.2206352,-2.00
5.2827840,52.2206958,-1.05
5.2827602,52.2207575,-0.74
5.2827195,52.2208227,1.65
5.2826638,52.2208745,2.42
5.2826637,52.2209385,1.02
5.2826735,52.2210075,2.76
5.2826722,52.2210722,2.69
5.2826035,52.2211240,2.54
5.2825065,52.2211507,2.07
5.2824135,52.2211315,-3.58
5.2823155,52.2211512,-0.84
5.2822515,52.2211978,0.54
5.2821633,52.2212438,0.71
5.2820575,52.2212572,-0.82
5.2819483,52.2212745,0.03
5.2818455,52.2212578,0.50
5.2817433,52.2212563,-0.09
5.2816410,52.2212465,-2.05
5.2815390,52.2212680,-1.43
5.2814755,52.2213222,2.83
5.2813627,52.2213210,4.77
5.2812547,52.2213328,4.19
5.2811505,52.2213342,4.38
5.2810482,52.2213377,4.96
5.2809493,52.2213448,3.83
5.2808507,52.2213498,4.66
5.2807507,52.2213518,4.92
5.2806382,52.2213467,4.11
5.2805317,52.2213480,2.84
5.2804303,52.2213572,2.95
5.2803270,52.2213640,2.46
5.2802258,52.2213728,3.68
5.2801257,52.2213820,3.25
5.2800037,52.2213900,1.38
5.2798987,52.2213952,1.64
5.2797855,52.2214018,1.43
5.2796910,52.2214238,3.72
5.2795830,52.2214527,5.10
5.2794710,52.2214692,6.49
5.2793672,52.2214635,6.38
5.2792587,52.2214640,5.24
5.2791528,52.2214647,4.91
5.2790315,52.2214610,2.89
5.2789297,52.2214650,0.76
5.2788188,52.2214867,1.74
5.2787097,52.2214995,2.59
5.2786027,52.2215002,2.66
5.2784955,52.2215002,3.04
5.2783995,52.2215197,2.70
5.2782902,52.2215218,2.44
5.2781752,52.2215135,2.83
5.2780682,52.2215240,2.20
5.2779523,52.2215460,1.99
5.2778342,52.2215605,3.11
5.2777072,52.2215577,2.66
5.2775843,52.2215633,2.49
5.2774712,52.2215645,1.10
5.2773760,52.2215635,0.80
5.2772585,52.2215700,-1.28
5.2771555,52.2215860,-0.66
5.2770502,52.2215920,0.37
5.2769410,52.2216005,1.35
5.2768388,52.2216182,2.94
5.2767242,52.2216363,5.45
5.2766180,52.2216477,7.03
5.2765093,52.2216522,4.14
5.2764050,52.2216507,3.07
5.2762957,52.2216532,1.85
5.2761912,52.2216795,3.51
5.2760862,52.2216958,4.89
5.2759813,52.2216943,3.32
5.2758673,52.2216905,1.93
5.2757652,52.2216975,1.70
5.2756532,52.2217058,2.62
5.2755422,52.2217132,3.48
5.2754360,52.2217160,3.91
5.2753263,52.2217203,4.03
5.2752193,52.2217338,4.00
5.2751125,52.2217452,3.79
5.2750095,52.2217553,3.63
5.2749032,52.2217522,0.41
5.2748005,52.2217530,-0.83
5.2746848,52.2217548,-1.57
5.2745710,52.2217665,-0.74
5.2744647,52.2217752,-1.08
5.2743613,52.2217688,-1.94
5.2742582,52.2217878,-3.54
5.2741593,52.2218087,-0.53
5.2740478,52.2218002,1.69
5.2739528,52.2218028,-2.18
5.2738495,52.2218117,-1.36
5.2737535,52.2218273,-0.76
5.2736440,52.2218230,-0.57
5.2735388,52.2218338,0.33
5.2734287,52.2218333,0.85
5.2733115,52.2218257,1.22
5.2732078,52.2218273,0.52
5.2731112,52.2218295,1.17
5.2730035,52.2218278,0.01
5.2729097,52.2218225,-1.26
5.2728112,52.2218123,-0.88
5.2727160,52.2217933,-1.58
5.2726157,52.2217893,-0.96
5.2725172,52.2218015,-0.22
5.2724158,52.2218135,0.94
5.2723247,52.2218402,4.33
5.2722208,52.2218407,4.33
5.2721250,52.2218113,0.65
5.2720367,52.2217883,-1.40
5.2719288,52.2217853,-2.69
5.2718237,52.2217718,-1.09
5.2717028,52.2217610,-0.23
5.2715807,52.2217515,1.93
5.2714690,52.2217392,2.58
5.2713655,52.2217337,2.82
5.2712632,52.2217308,4.29
5.2711553,52.2217195,5.73
5.2710407,52.2217168,7.05
5.2709407,52.2216977,7.43
5.2708467,52.2216740,6.22
5.2707385,52.2216523,4.64
5.2706313,52.2216302,3.92
5.2705328,52.2216082,2.73
5.2704397,52.2215847,0.87
5.2703372,52.2215678,-3.03
5.2702258,52.2215570,-2.63
5.2701097,52.2215460,1.02
5.2700052,52.2215275,1.16
5.2698953,52.2215140,1.33
5.2697853,52.2214948,1.03
5.2696665,52.2214632,0.57
5.2695540,52.2214462,1.35
5.2694403,52.2214323,-0.63
5.2693232,52.2214185,-0.47
5.2692043,52.2214033,-0.27
5.2690842,52.2213900,1.25
5.2689740,52.2213725,1.55
5.2688668,52.2213605,1.26
5.2687622,52.2213422,1.82
5.2686567,52.2213270,1.48
5.2685298,52.2213128,1.97
5.2684290,52.2212947,0.93
5.2683183,52.2212833,2.03
5.2682173,52.2212633,1.22
5.2681167,52.2212595,1.00
5.2680133,52.2212505,-0.79
5.2679112,52.2212388,-1.58
5.2678003,52.2212373,-1.45
5.2676945,52.2212252,-1.42
5.2675802,52.2212195,-3.20
5.2674825,52.2212010,-2.91
5.2673487,52.2211877,-2.90
5.2672437,52.2211705,-1.49
5.2671423,52.2211548,-2.76
5.2670378,52.2211350,-1.33
5.2669322,52.2211302,-2.18
5.2668162,52.2211228,-1.29
5.2667082,52.2211073,-1.78
5.2665998,52.2211023,-4.78
5.2664987,52.2210918,-3.72
5.2663850,52.2210795,-2.29
5.2662808,52.2210725,-3.89
5.2661805,52.2210622,-2.55
5.2660763,52.2210555,-4.45
5.2659613,52.2210437,-4.41
5.2658567,52.2210395,-2.41
5.2657482,52.2210222,-2.60
5.2656345,52.2210105,-2.68
5.2655285,52.2209977,-3.94
5.2654277,52.2209870,-2.82
5.2653283,52.2209870,-3.03
5.2652230,52.2209702,-2.39
5.2651218,52.2209525,-3.60
5.2650177,52.2209453,-2.95
5.2649077,52.2209307,-1.30
5.2648032,52.2209162,-0.60
5.2646992,52.2209027,-1.62
5.2645783,52.2208987,-1.00
5.2644722,52.2208917,-0.22
5.2643623,52.2208758,-1.46
5.2642545,52.2208598,-1.20
5.2641447,52.2208407,-1.32
5.2640255,52.2208253,0.69
5.2639127,52.2208072,0.17
5.2637902,52.2207977,0.28
5.2636763,52.2207833,0.40
5.2635692,52.2207678,0.09
5.2634538,52.2207488,0.03
5.2633537,52.2207435,0.25
5.2632397,52.2207390,0.02
5.2631363,52.2207308,0.33
5.2630142,52.2207187,-0.68
5.2628980,52.2207170,-0.36
5.2627923,52.2207198,0.18
5.2626788,52.2207138,-0.73
5.2625807,52.2207167,-0.46
5.2624643,52.2207215,-1.96
5.2623475,52.2207193,-1.00
5.2622317,52.2207182,-1.04
5.2621263,52.2207230,-0.76
5.2620273,52.2206997,-0.77
5.2620212,52.2206340,-1.95
5.2620563,52.2205748,-2.84
5.2621248,52.2205242,-3.27
5.2621818,52.2204665,0.51
5.2622238,52.2204098,-0.66
5.2622712,52.2203533,-1.91
5.2623348,52.2202892,-0.60
5.2623887,52.2202355,0.39
5.2624557,52.2201808,-0.40
5.2625192,52.2201242,-0.57
5.2625578,52.2200665,-1.01
5.2626100,52.2200075,-1.27
5.2626783,52.2199518,-0.60
5.2627345,52.2198975,0.34
5.2627818,52.2198327,-0.15
5.2628440,52.2197795,0.79
5.2629008,52.2197325,0.00
5.2629532,52.2196737,-1.59
5.2630072,52.2196235,-2.09
5.2630702,52.2195722,-4.32
5.2630645,52.2195112,-3.98
5.2631140,52.2194493,-3.63
5.2631855,52.2193943,-2.40
5.2632533,52.2193322,-0.44
5.2633297,52.2192795,-0.49
5.2633895,52.2192180,-2.43
5.2634430,52.2191512,-0.55
5.2635017,52.2190908,-0.14
5.2635757,52.2190410,1.07
5.2636058,52.2189777,-0.84
5.2636583,52.2189155,-0.09
5.2637073,52.2188652,-0.03
5.2637722,52.2188065,1.87
5.2638268,52.2187382,1.28
5.2638848,52.2186752,-0.86
5.2639350,52.2186148,1.29
5.2639925,52.2185540,5.12
5.2640505,52.2184968,7.04
5.2641085,52.2184418,4.59
5.2641673,52.2183882,2.70
5.2642092,52.2183300,0.83
5.2642773,52.2182882,3.13
5.2643705,52.2182900,1.58
5.2644627,52.2183112,0.06
5.2645630,52.2183192,-0.32
5.2646660,52.2183145,-2.53
5.2647668,52.2183240,-4.54
5.2648782,52.2183413,-3.61
5.2649867,52.2183470,-0.41
5.2651070,52.2183397,5.78
5.2652175,52.2183385,7.69
5.2653207,52.2183513,6.79
5.2654297,52.2183650,5.57
5.2655282,52.2183735,3.00
5.2656318,52.2183747,2.07
5.2657300,52.2183895,0.65
5.2658353,52.2183982,1.48
5.2659343,52.2184057,-0.01
5.2660283,52.2184200,0.27
5.2661262,52.2184233,0.98
5.2662263,52.2184312,0.63
5.2663365,52.2184413,1.34
5.2664255,52.2184720,4.12
5.2665270,52.2184800,3.16
5.2666273,52.2184940,-0.18
5.2667307,52.2185002,-1.93
5.2668342,52.2185012,-1.12
5.2669330,52.2185100,3.90
5.2670457,52.2185138,3.23
5.2671670,52.2185217,4.33
5.2672800,52.2185277,4.87
5.2673842,52.2185403,4.25
5.2674843,52.2185495,2.19
5.2675835,52.2185567,1.49
5.2676558,52.2185397,0.64
5.2677478,52.2185323,6.00
5.2678467,52.2185547,4.07
5.2679547,52.2185672,2.11
5.2680633,52.2185787,0.78
5.2681650,52.2185915,2.12
5.2682703,52.2186013,1.22
5.2683698,52.2186077,0.80
5.2684755,52.2186182,-1.06
5.2685857,52.2186348,0.10
5.2686918,52.2186440,0.47
5.2687928,52.2186575,0.49
5.2688868,52.2186677,0.98
5.2689913,52.2186715,3.04
5.2690930,52.2186785,0.53
5.2692037,52.2186887,-0.80
5.2693123,52.2187005,-0.58
5.2694180,52.2187058,-1.17
5.2695187,52.2187265,-1.71
5.2696263,52.2187250,0.50
5.2697340,52.2187200,2.00
5.2698480,52.2187240,2.96
5.2699583,52.2187225,4.55
5.2700643,52.2187077,2.95
5.2701753,52.2187087,2.82
5.2702830,52.2187172,3.36
5.2703948,52.2187225,4.37
5.2704983,52.2187112,4.10
5.2706057,52.2187217,4.08
5.2707232,52.2187242,4.39
5.2708327,52.2187083,4.99
5.2709327,52.2186938,4.45
5.2710385,52.2186988,3.59
5.2711513,52.2186948,4.69
5.2712627,52.2186802,5.12
5.2713603,52.2186768,5.85
5.2714658,52.2186467,6.15
5.2715648,52.2186178,6.11
5.2716667,52.2185980,5.14
5.2717787,52.2185700,5.29
5.2718767,52.2185393,6.11
5.2719868,52.2185210,5.73
5.2721002,52.2184933,5.35
5.2721853,52.2184712,5.67
5.2722918,52.2184575,5.78
5.2723855,52.2184303,5.32
5.2724820,52.2184048,6.06
5.2725827,52.2183703,5.08
5.2726908,52.2183497,6.08
5.2727967,52.2183293,5.96
5.2729085,52.2183117,6.49
5.2730105,52.2182873,6.98
5.2731107,52.2182588,4.97
5.2732115,52.2182245,2.32
5.2733013,52.2181975,1.94
5.2733982,52.2181712,1.78
5.2735003,52.2181465,2.68
5.2736123,52.2181205,3.46
5.2737233,52.2180910,3.72
5.2738193,52.2180642,3.44
5.2739195,52.2180302,3.50
5.2740122,52.2179907,4.21
5.2741083,52.2179597,4.51
5.2742053,52.2179268,4.07
5.2742907,52.2178943,5.10
5.2743770,52.2178590,5.11
5.2744692,52.2178220,4.27
5.2745668,52.2177820,5.62
5.2746665,52.2177438,6.55
5.2747578,52.2176987,7.13
5.2748475,52.2176528,7.26
5.2749312,52.2176077,6.96
5.2750077,52.2175638,7.67
5.2750790,52.2175135,6.93
5.2751593,52.2174773,6.02
5.2752212,52.2174348,4.64
5.2752608,52.2173815,4.16
5.2753160,52.2173320,2.67
5.2753985,52.2172913,3.42
5.2754662,52.2172455,2.93
5.2755470,52.2172070,2.68
5.2755877,52.2171510,2.48
5.2756417,52.2171032,1.31
5.2756855,52.2170472,1.16
5.2757480,52.2169957,2.58
5.2758277,52.2169513,3.36
5.2759123,52.2169108,4.21
5.2759988,52.2168655,5.30
5.2760818,52.2168223,5.39
5.2761710,52.2167878,5.23
5.2762543,52.2167448,3.85
5.2763397,52.2167125,5.76
5.2764240,52.2166622,6.28
5.2764950,52.2166113,6.07
5.2765588,52.2165645,4.91
5.2766363,52.2165227,5.03
5.2767342,52.2164993,3.34
5.2767927,52.2164492,5.15
5.2768650,52.2164042,4.70
5.2769418,52.2163607,4.50
5.2770278,52.2163183,5.86
5.2771078,52.2162722,7.27
5.2771657,52.2162187,9.36
5.2772355,52.2161642,9.98
5.2773127,52.2161197,7.93
5.2773780,52.2160775,7.44
5.2774657,52.2160390,7.44
5.2775302,52.2159855,7.48
5.2776190,52.2159497,7.44
5.2776972,52.2159035,7.54
5.2777825,52.2158695,6.15
5.2778417,52.2158218,5.68
5.2779197,52.2157850,5.37
5.2780077,52.2157570,5.56
5.2780993,52.2157290,5.67
5.2781850,52.2156913,7.59
5.2782712,52.2156597,6.22
5.2783677,52.2156363,4.72
5.2784525,52.2156083,4.37
5.2785473,52.2155847,3.50
5.2786520,52.2155680,3.88
5.2787645,52.2155457,5.49
5.2788758,52.2155305,5.83
5.2789662,52.2154932,5.47
5.2790605,52.2154645,5.70
5.2791655,52.2154562,5.65
5.2792600,52.2154285,3.92
5.2793403,52.2153882,2.68
5.2794397,52.2153605,2.65
5.2795445,52.2153310,3.00
5.2796397,52.2153072,3.24
5.2797412,52.2152902,5.16
5.2798243,52.2152712,4.98
5.2799280,52.2152667,5.42
5.2800328,52.2152408,4.26
5.2801312,52.2152145,3.80
5.2802170,52.2151872,3.74
5.2803205,52.2151828,3.58
5.2803942,52.2151357,4.71
5.2804783,52.2151057,5.21
5.2805825,52.2151010,5.03
5.2806673,52.2150762,5.10
5.2807617,52.2150513,6.00
5.2808568,52.2150340,5.47
5.2809477,52.2150097,6.98
5.2810350,52.2149815,6.73
5.2811420,52.2149690,5.52
5.2812378,52.2149453,4.44
5.2813380,52.2149195,6.25
5.2814250,52.2148958,6.09
5.2815182,52.2148667,6.56
5.2816122,52.2148408,7.65
5.2817042,52.2148215,9.62
5.2818028,52.2147995,10.45
5.2819005,52.2147750,10.25
5.2820045,52.2147560,9.46
5.2821138,52.2147563,10.34
5.2822322,52.2147452,10.85
5.2823327,52.2147353,11.32
5.2824457,52.2147300,10.84
5.2825473,52.2147117,10.21
5.2826465,52.2146765,10.73
5.2827353,52.2146318,10.23
5.2828072,52.2145858,10.56
5.2828795,52.2145428,9.32
5.2829618,52.2145177,8.37
5.2830645,52.2144983,7.35
5.2831550,52.2144712,6.68
5.2832517,52.2144597,5.75
5.2833505,52.2144285,6.76
5.2834402,52.2143965,7.53
5.2835375,52.2143750,8.73
5.2836370,52.2143535,9.57
5.2837230,52.2143230,8.79
5.2838110,52.2142968,9.58
5.2838965,52.2142832,10.40
5.2839957,52.2142598,9.13
5.2840892,52.2142453,8.01
5.2841817,52.2142198,8.82
5.2842762,52.2141878,8.92
5.2843658,52.2141480,8.81
5.2844637,52.2141178,8.15
5.2845820,52.2141247,10.11
5.2846765,52.2140958,9.99
5.2847747,52.2140705,9.77
5.2848517,52.2140332,8.92
5.2849520,52.2140153,8.23
5.2850527,52.2139950,8.55
5.2851502,52.2139772,7.52
5.2852490,52.2139577,7.66
5.2853377,52.2139322,8.11
5.2854420,52.2139152,7.86
5.2855408,52.2138852,8.13
5.2856365,52.2139123,8.73
5.2857403,52.2139055,8.14
5.2858495,52.2138757,6.94
5.2859550,52.2138467,7.28
5.2860355,52.2138142,7.54
5.2861152,52.2137682,7.72
5.2861852,52.2137162,8.32
5.2862840,52.2137025,7.50
5.2863760,52.2137345,8.99
5.2864595,52.2137770,10.23
5.2865597,52.2137998,9.76
5.2866567,52.2138357,9.25
5.2867582,52.2138657,9.49
5.2868543,52.2138895,9.81
5.2869588,52.2139112,8.87
5.2870593,52.2139285,8.21
5.2871652,52.2139482,7.63
5.2872598,52.2139702,7.09
5.2873630,52.2139863,7.74
5.2874700,52.2140012,7.20
5.2875750,52.2140130,7.71
5.2876847,52.2140212,8.76
5.2877922,52.2140322,8.61
5.2878867,52.2140572,8.75
5.2879817,52.2140880,8.62
5.2880905,52.2141082,9.19
5.2881898,52.2141210,10.01
5.2883012,52.2141198,9.47
5.2884047,52.2141275,7.72
5.2885098,52.2141288,7.10
5.2886160,52.2141372,7.41
5.2887107,52.2141752,7.54
5.2887748,52.2142298,7.57
5.2887932,52.2142868,6.42
5.2888433,52.2143405,4.06
5.2888633,52.2144068,3.26
5.2888825,52.2144673,5.16
5.2889117,52.2145297,5.87
5.2889517,52.2145912,5.31
5.2889743,52.2146560,5.77
5.2890045,52.2147218,7.54
5.2890458,52.2147830,8.00
5.2890810,52.2148492,11.02
5.2891377,52.2149057,10.85
5.2891642,52.2149672,10.18
5.2891753,52.2150377,9.21
5.2892112,52.2151022,8.06
5.2892492,52.2151608,9.34
5.2893015,52.2152252,9.84
5.2893367,52.2152845,10.30
5.2894003,52.2153423,9.96
5.2894482,52.2154000,9.32
5.2894913,52.2154630,9.65
5.2895237,52.2155260,11.21
5.2895547,52.2155920,11.77
5.2895900,52.2156568,10.90
5.2896167,52.2157220,10.58
5.2896360,52.2157868,10.95
5.2896867,52.2158507,10.83
5.2897698,52.2158945,10.78
5.2898438,52.2159433,10.96
5.2899265,52.2159805,9.03
5.2899633,52.2160407,7.72
5.2899752,52.2161030,6.54
5.2900140,52.2161582,3.91
5.2900378,52.2162152,3.85
5.2900720,52.2162740,3.49
5.2901012,52.2163367,2.59
5.2901332,52.2163850,1.99
5.2902107,52.2163865,-0.51
5.2901222,52.2164125,1.36
5.2900402,52.2163775,4.68
5.2900183,52.2163213,4.23
5.2900728,52.2164117,6.34
5.2900882,52.2164735,7.29
5.2900600,52.2164198,3.47
5.2901473,52.2164127,5.15
5.2902217,52.2163958,2.56
5.2901477,52.2164205,5.00
5.2900602,52.2164067,5.90
5.2901567,52.2164112,6.18
5.2902463,52.2164138,2.99
5.2901735,52.2164257,4.40
5.2902498,52.2164230,10.85
</coordinates></LineString></Placemark></Document></kml>
