<?xml version="1.0" encoding="UTF-8"?>
<gpx version="1.1" creator="tripTracker" xmlns="http://www.topografix.com/GPX/1/1" xmlns:trkptx="https://triptracker.local/gpx">
  <trk><name>GPS Trip</name><trkseg>
      <trkpt lat="52.2163862" lon="5.2904440"><ele>5.53</ele><time>2026-09-15T09:31:06Z</time><extensions><speed_kmh>0.204</speed_kmh><course_deg>0.000</course_deg><satellites>27</satellites><distance_m>0.00</distance_m></extensions></trkpt>
      <trkpt lat="52.2163862" lon="5.2904440"><ele>5.53</ele><time>2026-09-15T09:31:06Z</time><extensions><speed_kmh>0.204</speed_kmh><course_deg>0.000</course_deg><satellites>27</satellites><distance_m>0.00</distance_m></extensions></trkpt>
     <trkpt lat="52.2163590" lon="5.2904255"><ele>9.51</ele><time>2026-09-15T09:31:19Z</time><extensions><speed_kmh>4.741</speed_kmh><course_deg>314.850</course_deg><satellites>15</satellites><distance_m>3.28</distance_m></extensions></trkpt>
      <trkpt lat="52.2163832" lon="5.2903860"><ele>8.77</ele><time>2026-09-15T09:31:24Z</time><extensions><speed_kmh>3.593</speed_kmh><course_deg>320.180</course_deg><satellites>24</satellites><distance_m>7.08</distance_m></extensions></trkpt>
      <trkpt lat="52.2163862" lon="5.2904440"><ele>5.53</ele><time>2026-09-15T09:31:06Z</time><extensions><speed_kmh>0.204</speed_kmh><course_deg>0.000</course_deg><satellites>27</satellites><distance_m>0.00</distance_m></extensions></trkpt>
      <trkpt lat="52.2163862" lon="5.2904440"><ele>5.53</ele><time>2026-09-15T09:31:06Z</time><extensions><speed_kmh>0.204</speed_kmh><course_deg>0.000</course_deg><satellites>27</satellites><distance_m>0.00</distance_m></extensions></trkpt>
     <trkpt lat="52.2163590" lon="5.2904255"><ele>9.51</ele><time>2026-09-15T09:31:19Z</time><extensions><speed_kmh>4.741</speed_kmh><course_deg>314.850</course_deg><satellites>15</satellites><distance_m>3.28</distance_m></extensions></trkpt>
      <trkpt lat="52.2163832" lon="5.2903860"><ele>8.77</ele><time>2026-09-15T09:31:24Z</time><extensions><speed_kmh>3.593</speed_kmh><course_deg>320.180</course_deg><satellites>24</satellites><distance_m>7.08</distance_m></extensions></trkpt>
      <trkpt lat="52.2163882" lon="5.2903145"><ele>6.13</ele><time>2026-09-15T09:31:29Z</time><extensions><speed_kmh>4.167</speed_kmh><course_deg>248.260</course_deg><satellites>28</satellites><distance_m>11.98</distance_m></extensions></trkpt>
      <trkpt lat="52.2163978" lon="5.2903408"><ele>5.30</ele><time>2026-09-15T09:31:35Z</time><extensions><speed_kmh>3.334</speed_kmh><course_deg>106.480</course_deg><satellites>29</satellites><distance_m>14.07</distance_m></extensions></trkpt>
      <trkpt lat="52.2163590" lon="5.2904183"><ele>4.55</ele><time>2026-09-15T09:31:41Z</time><extensions><speed_kmh>3.704</speed_kmh><course_deg>124.650</course_deg><satellites>30</satellites><distance_m>20.89</distance_m></extensions></trkpt>
      <trkpt lat="52.2163862" lon="5.2904440"><ele>5.53</ele><time>2026-09-15T09:31:06Z</time><extensions><speed_kmh>0.204</speed_kmh><course_deg>0.000</course_deg><satellites>27</satellites><distance_m>0.00</distance_m></extensions></trkpt>
     <trkpt lat="52.2163590" lon="5.2904255"><ele>9.51</ele><time>2026-09-15T09:31:19Z</time><extensions><speed_kmh>4.741</speed_kmh><course_deg>314.850</course_deg><satellites>15</satellites><distance_m>3.28</distance_m></extensions></trkpt>
      <trkpt lat="52.2163832" lon="5.2903860"><ele>8.77</ele><time>2026-09-15T09:31:24Z</time><extensions><speed_kmh>3.593</speed_kmh><course_deg>320.180</course_deg><satellites>24</satellites><distance_m>7.08</distance_m></extensions></trkpt>
      <trkpt lat="52.2163882" lon="5.2903145"><ele>6.13</ele><time>2026-09-15T09:31:29Z</time><extensions><speed_kmh>4.167</speed_kmh><course_deg>248.260</course_deg><satellites>28</satellites><distance_m>11.98</distance_m></extensions></trkpt>
      <trkpt lat="52.2163978" lon="5.2903408"><ele>5.30</ele><time>2026-09-15T09:31:35Z</time><extensions><speed_kmh>3.334</speed_kmh><course_deg>106.480</course_deg><satellites>29</satellites><distance_m>14.07</distance_m></extensions></trkpt>
      <trkpt lat="52.2163590" lon="5.2904183"><ele>4.55</ele><time>2026-09-15T09:31:41Z</time><extensions><speed_kmh>3.704</speed_kmh><course_deg>124.650</course_deg><satellites>30</satellites><distance_m>20.89</distance_m></extensions></trkpt>
      <trkpt lat="52.2163862" lon="5.2904440"><ele>5.53</ele><time>2026-09-15T09:31:06Z</time><extensions><speed_kmh>0.204</speed_kmh><course_deg>0.000</course_deg><satellites>27</satellites><distance_m>0.00</distance_m></extensions></trkpt>
     <trkpt lat="52.2163590" lon="5.2904255"><ele>9.51</ele><time>2026-09-15T09:31:19Z</time><extensions><speed_kmh>4.741</speed_kmh><course_deg>314.850</course_deg><satellites>15</satellites><distance_m>3.28</distance_m></extensions></trkpt>
      <trkpt lat="52.2163832" lon="5.2903860"><ele>8.77</ele><time>2026-09-15T09:31:24Z</time><extensions><speed_kmh>3.593</speed_kmh><course_deg>320.180</course_deg><satellites>24</satellites><distance_m>7.08</distance_m></extensions></trkpt>
      <trkpt lat="52.2163882" lon="5.2903145"><ele>6.13</ele><time>2026-09-15T09:31:29Z</time><extensions><speed_kmh>4.167</speed_kmh><course_deg>248.260</course_deg><satellites>28</satellites><distance_m>11.98</distance_m></extensions></trkpt>
      <trkpt lat="52.2163978" lon="5.2903408"><ele>5.30</ele><time>2026-09-15T09:31:35Z</time><extensions><speed_kmh>3.334</speed_kmh><course_deg>106.480</course_deg><satellites>29</satellites><distance_m>14.07</distance_m></extensions></trkpt>
      <trkpt lat="52.2163590" lon="5.2904183"><ele>4.55</ele><time>2026-09-15T09:31:41Z</time><extensions><speed_kmh>3.704</speed_kmh><course_deg>124.650</course_deg><satellites>30</satellites><distance_m>20.89</distance_m></extensions></trkpt>
     <trkpt lat="52.2163590" lon="5.2904255"><ele>9.51</ele><time>2026-09-15T09:31:19Z</time><extensions><speed_kmh>4.741</speed_kmh><course_deg>314.850</course_deg><satellites>15</satellites><distance_m>3.28</distance_m></extensions></trkpt>
      <trkpt lat="52.2163832" lon="5.2903860"><ele>8.77</ele><time>2026-09-15T09:31:24Z</time><extensions><speed_kmh>3.593</speed_kmh><course_deg>320.180</course_deg><satellites>24</satellites><distance_m>7.08</distance_m></extensions></trkpt>
      <trkpt lat="52.2163882" lon="5.2903145"><ele>6.13</ele><time>2026-09-15T09:31:29Z</time><extensions><speed_kmh>4.167</speed_kmh><course_deg>248.260</course_deg><satellites>28</satellites><distance_m>11.98</distance_m></extensions></trkpt>
      <trkpt lat="52.2163978" lon="5.2903408"><ele>5.30</ele><time>2026-09-15T09:31:35Z</time><extensions><speed_kmh>3.334</speed_kmh><course_deg>106.480</course_deg><satellites>29</satellites><distance_m>14.07</distance_m></extensions></trkpt>
      <trkpt lat="52.2163590" lon="5.2904183"><ele>4.55</ele><time>2026-09-15T09:31:41Z</time><extensions><speed_kmh>3.704</speed_kmh><course_deg>124.650</course_deg><satellites>30</satellites><distance_m>20.89</distance_m></extensions></trkpt>
      <trkpt lat="52.2163862" lon="5.2904440"><ele>5.53</ele><time>2026-09-15T09:31:06Z</time><extensions><speed_kmh>0.204</speed_kmh><course_deg>0.000</course_deg><satellites>27</satellites><distance_m>0.00</distance_m></extensions></trkpt>
      <trkpt lat="52.2163862" lon="5.2904440"><ele>5.53</ele><time>2026-09-15T09:31:06Z</time><extensions><speed_kmh>0.204</speed_kmh><course_deg>0.000</course_deg><satellites>27</satellites><distance_m>0.00</distance_m></extensions></trkpt>
     <trkpt lat="52.2163590" lon="5.2904255"><ele>9.51</ele><time>2026-09-15T09:31:19Z</time><extensions><speed_kmh>4.741</speed_kmh><course_deg>314.850</course_deg><satellites>15</satellites><distance_m>3.28</distance_m></extensions></trkpt>
      <trkpt lat="52.2163832" lon="5.2903860"><ele>8.77</ele><time>2026-09-15T09:31:24Z</time><extensions><speed_kmh>3.593</speed_kmh><course_deg>320.180</course_deg><satellites>24</satellites><distance_m>7.08</distance_m></extensions></trkpt>
      <trkpt lat="52.2163882" lon="5.2903145"><ele>6.13</ele><time>2026-09-15T09:31:29Z</time><extensions><speed_kmh>4.167</speed_kmh><course_deg>248.260</course_deg><satellites>28</satellites><distance_m>11.98</distance_m></extensions></trkpt>
      <trkpt lat="52.2163978" lon="5.2903408"><ele>5.30</ele><time>2026-09-15T09:31:35Z</time><extensions><speed_kmh>3.334</speed_kmh><course_deg>106.480</course_deg><satellites>29</satellites><distance_m>14.07</distance_m></extensions></trkpt>
      <trkpt lat="52.2163590" lon="5.2904183"><ele>4.55</ele><time>2026-09-15T09:31:41Z</time><extensions><speed_kmh>3.704</speed_kmh><course_deg>124.650</course_deg><satellites>30</satellites><distance_m>20.89</distance_m></extensions></trkpt>
      <trkpt lat="52.2163862" lon="5.2904440"><ele>5.53</ele><time>2026-09-15T09:31:06Z</time><extensions><speed_kmh>0.204</speed_kmh><course_deg>0.000</course_deg><satellites>27</satellites><distance_m>0.00</distance_m></extensions></trkpt>
     <trkpt lat="52.2163590" lon="5.2904255"><ele>9.51</ele><time>2026-09-15T09:31:19Z</time><extensions><speed_kmh>4.741</speed_kmh><course_deg>314.850</course_deg><satellites>15</satellites><distance_m>3.28</distance_m></extensions></trkpt>
      <trkpt lat="52.2163832" lon="5.2903860"><ele>8.77</ele><time>2026-09-15T09:31:24Z</time><extensions><speed_kmh>3.593</speed_kmh><course_deg>320.180</course_deg><satellites>24</satellites><distance_m>7.08</distance_m></extensions></trkpt>
      <trkpt lat="52.2163882" lon="5.2903145"><ele>6.13</ele><time>2026-09-15T09:31:29Z</time><extensions><speed_kmh>4.167</speed_kmh><course_deg>248.260</course_deg><satellites>28</satellites><distance_m>11.98</distance_m></extensions></trkpt>
      <trkpt lat="52.2163978" lon="5.2903408"><ele>5.30</ele><time>2026-09-15T09:31:35Z</time><extensions><speed_kmh>3.334</speed_kmh><course_deg>106.480</course_deg><satellites>29</satellites><distance_m>14.07</distance_m></extensions></trkpt>
      <trkpt lat="52.2163590" lon="5.2904183"><ele>4.55</ele><time>2026-09-15T09:31:41Z</time><extensions><speed_kmh>3.704</speed_kmh><course_deg>124.650</course_deg><satellites>30</satellites><distance_m>20.89</distance_m></extensions></trkpt>
      <trkpt lat="52.2163862" lon="5.2904440"><ele>5.53</ele><time>2026-09-15T09:31:06Z</time><extensions><speed_kmh>0.204</speed_kmh><course_deg>0.000</course_deg><satellites>27</satellites><distance_m>0.00</distance_m></extensions></trkpt>
     <trkpt lat="52.2163590" lon="5.2904255"><ele>9.51</ele><time>2026-09-15T09:31:19Z</time><extensions><speed_kmh>4.741</speed_kmh><course_deg>314.850</course_deg><satellites>15</satellites><distance_m>3.28</distance_m></extensions></trkpt>
      <trkpt lat="52.2163832" lon="5.2903860"><ele>8.77</ele><time>2026-09-15T09:31:24Z</time><extensions><speed_kmh>3.593</speed_kmh><course_deg>320.180</course_deg><satellites>24</satellites><distance_m>7.08</distance_m></extensions></trkpt>
      <trkpt lat="52.2163882" lon="5.2903145"><ele>6.13</ele><time>2026-09-15T09:31:29Z</time><extensions><speed_kmh>4.167</speed_kmh><course_deg>248.260</course_deg><satellites>28</satellites><distance_m>11.98</distance_m></extensions></trkpt>
      <trkpt lat="52.2163978" lon="5.2903408"><ele>5.30</ele><time>2026-09-15T09:31:35Z</time><extensions><speed_kmh>3.334</speed_kmh><course_deg>106.480</course_deg><satellites>29</satellites><distance_m>14.07</distance_m></extensions></trkpt>
      <trkpt lat="52.2163590" lon="5.2904183"><ele>4.55</ele><time>2026-09-15T09:31:41Z</time><extensions><speed_kmh>3.704</speed_kmh><course_deg>124.650</course_deg><satellites>30</satellites><distance_m>20.89</distance_m></extensions></trkpt>
     <trkpt lat="52.2163590" lon="5.2904255"><ele>9.51</ele><time>2026-09-15T09:31:19Z</time><extensions><speed_kmh>4.741</speed_kmh><course_deg>314.850</course_deg><satellites>15</satellites><distance_m>3.28</distance_m></extensions></trkpt>
      <trkpt lat="52.2163832" lon="5.2903860"><ele>8.77</ele><time>2026-09-15T09:31:24Z</time><extensions><speed_kmh>3.593</speed_kmh><course_deg>320.180</course_deg><satellites>24</satellites><distance_m>7.08</distance_m></extensions></trkpt>
      <trkpt lat="52.2163882" lon="5.2903145"><ele>6.13</ele><time>2026-09-15T09:31:29Z</time><extensions><speed_kmh>4.167</speed_kmh><course_deg>248.260</course_deg><satellites>28</satellites><distance_m>11.98</distance_m></extensions></trkpt>
      <trkpt lat="52.2163978" lon="5.2903408"><ele>5.30</ele><time>2026-09-15T09:31:35Z</time><extensions><speed_kmh>3.334</speed_kmh><course_deg>106.480</course_deg><satellites>29</satellites><distance_m>14.07</distance_m></extensions></trkpt>
      <trkpt lat="52.2163590" lon="5.2904183"><ele>4.55</ele><time>2026-09-15T09:31:41Z</time><extensions><speed_kmh>3.704</speed_kmh><course_deg>124.650</course_deg><satellites>30</satellites><distance_m>20.89</distance_m></extensions></trkpt>
      <trkpt lat="52.2163862" lon="5.2904440"><ele>5.53</ele><time>2026-09-15T09:31:06Z</time><extensions><speed_kmh>0.204</speed_kmh><course_deg>0.000</course_deg><satellites>27</satellites><distance_m>0.00</distance_m></extensions></trkpt>
      <trkpt lat="52.2163862" lon="5.2904440"><ele>5.53</ele><time>2026-09-15T09:31:06Z</time><extensions><speed_kmh>0.204</speed_kmh><course_deg>0.000</course_deg><satellites>27</satellites><distance_m>0.00</distance_m></extensions></trkpt>
     <trkpt lat="52.2163590" lon="5.2904255"><ele>9.51</ele><time>2026-09-15T09:31:19Z</time><extensions><speed_kmh>4.741</speed_kmh><course_deg>314.850</course_deg><satellites>15</satellites><distance_m>3.28</distance_m></extensions></trkpt>
      <trkpt lat="52.2163832" lon="5.2903860"><ele>8.77</ele><time>2026-09-15T09:31:24Z</time><extensions><speed_kmh>3.593</speed_kmh><course_deg>320.180</course_deg><satellites>24</satellites><distance_m>7.08</distance_m></extensions></trkpt>
      <trkpt lat="52.2163882" lon="5.2903145"><ele>6.13</ele><time>2026-09-15T09:31:29Z</time><extensions><speed_kmh>4.167</speed_kmh><course_deg>248.260</course_deg><satellites>28</satellites><distance_m>11.98</distance_m></extensions></trkpt>
      <trkpt lat="52.2163978" lon="5.2903408"><ele>5.30</ele><time>2026-09-15T09:31:35Z</time><extensions><speed_kmh>3.334</speed_kmh><course_deg>106.480</course_deg><satellites>29</satellites><distance_m>14.07</distance_m></extensions></trkpt>
      <trkpt lat="52.2163590" lon="5.2904183"><ele>4.55</ele><time>2026-09-15T09:31:41Z</time><extensions><speed_kmh>3.704</speed_kmh><course_deg>124.650</course_deg><satellites>30</satellites><distance_m>20.89</distance_m></extensions></trkpt>
      <trkpt lat="52.2163862" lon="5.2904440"><ele>5.53</ele><time>2026-09-15T09:31:06Z</time><extensions><speed_kmh>0.204</speed_kmh><course_deg>0.000</course_deg><satellites>27</satellites><distance_m>0.00</distance_m></extensions></trkpt>
     <trkpt lat="52.2163590" lon="5.2904255"><ele>9.51</ele><time>2026-09-15T09:31:19Z</time><extensions><speed_kmh>4.741</speed_kmh><course_deg>314.850</course_deg><satellites>15</satellites><distance_m>3.28</distance_m></extensions></trkpt>
      <trkpt lat="52.2163832" lon="5.2903860"><ele>8.77</ele><time>2026-09-15T09:31:24Z</time><extensions><speed_kmh>3.593</speed_kmh><course_deg>320.180</course_deg><satellites>24</satellites><distance_m>7.08</distance_m></extensions></trkpt>
      <trkpt lat="52.2163882" lon="5.2903145"><ele>6.13</ele><time>2026-09-15T09:31:29Z</time><extensions><speed_kmh>4.167</speed_kmh><course_deg>248.260</course_deg><satellites>28</satellites><distance_m>11.98</distance_m></extensions></trkpt>
      <trkpt lat="52.2163978" lon="5.2903408"><ele>5.30</ele><time>2026-09-15T09:31:35Z</time><extensions><speed_kmh>3.334</speed_kmh><course_deg>106.480</course_deg><satellites>29</satellites><distance_m>14.07</distance_m></extensions></trkpt>
      <trkpt lat="52.2163590" lon="5.2904183"><ele>4.55</ele><time>2026-09-15T09:31:41Z</time><extensions><speed_kmh>3.704</speed_kmh><course_deg>124.650</course_deg><satellites>30</satellites><distance_m>20.89</distance_m></extensions></trkpt>
      <trkpt lat="52.2163862" lon="5.2904440"><ele>5.53</ele><time>2026-09-15T09:31:06Z</time><extensions><speed_kmh>0.204</speed_kmh><course_deg>0.000</course_deg><satellites>27</satellites><distance_m>0.00</distance_m></extensions></trkpt>
     <trkpt lat="52.2163590" lon="5.2904255"><ele>9.51</ele><time>2026-09-15T09:31:19Z</time><extensions><speed_kmh>4.741</speed_kmh><course_deg>314.850</course_deg><satellites>15</satellites><distance_m>3.28</distance_m></extensions></trkpt>
      <trkpt lat="52.2163832" lon="5.2903860"><ele>8.77</ele><time>2026-09-15T09:31:24Z</time><extensions><speed_kmh>3.593</speed_kmh><course_deg>320.180</course_deg><satellites>24</satellites><distance_m>7.08</distance_m></extensions></trkpt>
      <trkpt lat="52.2163882" lon="5.2903145"><ele>6.13</ele><time>2026-09-15T09:31:29Z</time><extensions><speed_kmh>4.167</speed_kmh><course_deg>248.260</course_deg><satellites>28</satellites><distance_m>11.98</distance_m></extensions></trkpt>
      <trkpt lat="52.2163978" lon="5.2903408"><ele>5.30</ele><time>2026-09-15T09:31:35Z</time><extensions><speed_kmh>3.334</speed_kmh><course_deg>106.480</course_deg><satellites>29</satellites><distance_m>14.07</distance_m></extensions></trkpt>
      <trkpt lat="52.2163590" lon="5.2904183"><ele>4.55</ele><time>2026-09-15T09:31:41Z</time><extensions><speed_kmh>3.704</speed_kmh><course_deg>124.650</course_deg><satellites>30</satellites><distance_m>20.89</distance_m></extensions></trkpt>
     <trkpt lat="52.2163590" lon="5.2904255"><ele>9.51</ele><time>2026-09-15T09:31:19Z</time><extensions><speed_kmh>4.741</speed_kmh><course_deg>314.850</course_deg><satellites>15</satellites><distance_m>3.28</distance_m></extensions></trkpt>
      <trkpt lat="52.2163832" lon="5.2903860"><ele>8.77</ele><time>2026-09-15T09:31:24Z</time><extensions><speed_kmh>3.593</speed_kmh><course_deg>320.180</course_deg><satellites>24</satellites><distance_m>7.08</distance_m></extensions></trkpt>
      <trkpt lat="52.2163882" lon="5.2903145"><ele>6.13</ele><time>2026-09-15T09:31:29Z</time><extensions><speed_kmh>4.167</speed_kmh><course_deg>248.260</course_deg><satellites>28</satellites><distance_m>11.98</distance_m></extensions></trkpt>
      <trkpt lat="52.2163978" lon="5.2903408"><ele>5.30</ele><time>2026-09-15T09:31:35Z</time><extensions><speed_kmh>3.334</speed_kmh><course_deg>106.480</course_deg><satellites>29</satellites><distance_m>14.07</distance_m></extensions></trkpt>
      <trkpt lat="52.2163590" lon="5.2904183"><ele>4.55</ele><time>2026-09-15T09:31:41Z</time><extensions><speed_kmh>3.704</speed_kmh><course_deg>124.650</course_deg><satellites>30</satellites><distance_m>20.89</distance_m></extensions></trkpt>
      <trkpt lat="52.2163882" lon="5.2903145"><ele>6.13</ele><time>2026-09-15T09:31:29Z</time><extensions><speed_kmh>4.167</speed_kmh><course_deg>248.260</course_deg><satellites>28</satellites><distance_m>11.98</distance_m></extensions></trkpt>
      <trkpt lat="52.2163978" lon="5.2903408"><ele>5.30</ele><time>2026-09-15T09:31:35Z</time><extensions><speed_kmh>3.334</speed_kmh><course_deg>106.480</course_deg><satellites>29</satellites><distance_m>14.07</distance_m></extensions></trkpt>
      <trkpt lat="52.2163590" lon="5.2904183"><ele>4.55</ele><time>2026-09-15T09:31:41Z</time><extensions><speed_kmh>3.704</speed_kmh><course_deg>124.650</course_deg><satellites>30</satellites><distance_m>20.89</distance_m></extensions></trkpt>
      <trkpt lat="52.2163862" lon="5.2904440"><ele>5.53</ele><time>2026-09-15T09:31:06Z</time><extensions><speed_kmh>0.204</speed_kmh><course_deg>0.000</course_deg><satellites>27</satellites><distance_m>0.00</distance_m></extensions></trkpt>
     <trkpt lat="52.2163590" lon="5.2904255"><ele>9.51</ele><time>2026-09-15T09:31:19Z</time><extensions><speed_kmh>4.741</speed_kmh><course_deg>314.850</course_deg><satellites>15</satellites><distance_m>3.28</distance_m></extensions></trkpt>
      <trkpt lat="52.2163832" lon="5.2903860"><ele>8.77</ele><time>2026-09-15T09:31:24Z</time><extensions><speed_kmh>3.593</speed_kmh><course_deg>320.180</course_deg><satellites>24</satellites><distance_m>7.08</distance_m></extensions></trkpt>
      <trkpt lat="52.2163882" lon="5.2903145"><ele>6.13</ele><time>2026-09-15T09:31:29Z</time><extensions><speed_kmh>4.167</speed_kmh><course_deg>248.260</course_deg><satellites>28</satellites><distance_m>11.98</distance_m></extensions></trkpt>
      <trkpt lat="52.2163978" lon="5.2903408"><ele>5.30</ele><time>2026-09-15T09:31:35Z</time><extensions><speed_kmh>3.334</speed_kmh><course_deg>106.480</course_deg><satellites>29</satellites><distance_m>14.07</distance_m></extensions></trkpt>
      <trkpt lat="52.2163590" lon="5.2904183"><ele>4.55</ele><time>2026-09-15T09:31:41Z</time><extensions><speed_kmh>3.704</speed_kmh><course_deg>124.650</course_deg><satellites>30</satellites><distance_m>20.89</distance_m></extensions></trkpt>
      <trkpt lat="52.2163862" lon="5.2904440"><ele>5.53</ele><time>2026-09-15T09:31:06Z</time><extensions><speed_kmh>0.204</speed_kmh><course_deg>0.000</course_deg><satellites>27</satellites><distance_m>0.00</distance_m></extensions></trkpt>
     <trkpt lat="52.2163590" lon="5.2904255"><ele>9.51</ele><time>2026-09-15T09:31:19Z</time><extensions><speed_kmh>4.741</speed_kmh><course_deg>314.850</course_deg><satellites>15</satellites><distance_m>3.28</distance_m></extensions></trkpt>
      <trkpt lat="52.2163832" lon="5.2903860"><ele>8.77</ele><time>2026-09-15T09:31:24Z</time><extensions><speed_kmh>3.593</speed_kmh><course_deg>320.180</course_deg><satellites>24</satellites><distance_m>7.08</distance_m></extensions></trkpt>
      <trkpt lat="52.2163882" lon="5.2903145"><ele>6.13</ele><time>2026-09-15T09:31:29Z</time><extensions><speed_kmh>4.167</speed_kmh><course_deg>248.260</course_deg><satellites>28</satellites><distance_m>11.98</distance_m></extensions></trkpt>
      <trkpt lat="52.2163978" lon="5.2903408"><ele>5.30</ele><time>2026-09-15T09:31:35Z</time><extensions><speed_kmh>3.334</speed_kmh><course_deg>106.480</course_deg><satellites>29</satellites><distance_m>14.07</distance_m></extensions></trkpt>
      <trkpt lat="52.2163590" lon="5.2904183"><ele>4.55</ele><time>2026-09-15T09:31:41Z</time><extensions><speed_kmh>3.704</speed_kmh><course_deg>124.650</course_deg><satellites>30</satellites><distance_m>20.89</distance_m></extensions></trkpt>
     <trkpt lat="52.2163590" lon="5.2904255"><ele>9.51</ele><time>2026-09-15T09:31:19Z</time><extensions><speed_kmh>4.741</speed_kmh><course_deg>314.850</course_deg><satellites>15</satellites><distance_m>3.28</distance_m></extensions></trkpt>
      <trkpt lat="52.2163832" lon="5.2903860"><ele>8.77</ele><time>2026-09-15T09:31:24Z</time><extensions><speed_kmh>3.593</speed_kmh><course_deg>320.180</course_deg><satellites>24</satellites><distance_m>7.08</distance_m></extensions></trkpt>
      <trkpt lat="52.2163882" lon="5.2903145"><ele>6.13</ele><time>2026-09-15T09:31:29Z</time><extensions><speed_kmh>4.167</speed_kmh><course_deg>248.260</course_deg><satellites>28</satellites><distance_m>11.98</distance_m></extensions></trkpt>
      <trkpt lat="52.2163978" lon="5.2903408"><ele>5.30</ele><time>2026-09-15T09:31:35Z</time><extensions><speed_kmh>3.334</speed_kmh><course_deg>106.480</course_deg><satellites>29</satellites><distance_m>14.07</distance_m></extensions></trkpt>
      <trkpt lat="52.2163590" lon="5.2904183"><ele>4.55</ele><time>2026-09-15T09:31:41Z</time><extensions><speed_kmh>3.704</speed_kmh><course_deg>124.650</course_deg><satellites>30</satellites><distance_m>20.89</distance_m></extensions></trkpt>
    </trkseg></trk>
</gpx>
