<?xml version="1.0" encoding="UTF-8"?>
<gpx version="1.1" creator="tripTracker" xmlns="http://www.topografix.com/GPX/1/1" xmlns:trkptx="https://triptracker.local/gpx">
  <trk><name>GPS Trip</name><trkseg>
      <trkpt lat="52.2163882" lon="5.2904842"><ele>7.56</ele><time>2026-09-15T10:28:34Z</time><extensions><speed_kmh>0.241</speed_kmh><course_deg>0.000</course_deg><satellites>29</satellites><distance_m>0.00</distance_m></extensions></trkpt>
      <trkpt lat="52.2163882" lon="5.2904842"><ele>7.56</ele><time>2026-09-15T10:28:34Z</time><extensions><speed_kmh>0.241</speed_kmh><course_deg>0.000</course_deg><satellites>29</satellites><distance_m>0.00</distance_m></extensions></trkpt>
      <trkpt lat="52.2163620" lon="5.2905087"><ele>-1.48</ele><time>2026-09-15T10:29:14Z</time><extensions><speed_kmh>2.593</speed_kmh><course_deg>226.910</course_deg><satellites>14</satellites><distance_m>3.36</distance_m></extensions></trkpt>
      <trkpt lat="52.2163967" lon="5.2904150"><ele>0.75</ele><time>2026-09-15T10:29:20Z</time><extensions><speed_kmh>2.871</speed_kmh><course_deg>319.340</course_deg><satellites>25</satellites><distance_m>10.81</distance_m></extensions></trkpt>
      <trkpt lat="52.2164108" lon="5.2903295"><ele>0.45</ele><time>2026-09-15T10:29:26Z</time><extensions><speed_kmh>2.167</speed_kmh><course_deg>302.800</course_deg><satellites>28</satellites><distance_m>16.85</distance_m></extensions></trkpt>
      <trkpt lat="52.2163808" lon="5.2904097"><ele>0.27</ele><time>2026-09-15T10:29:34Z</time><extensions><speed_kmh>3.945</speed_kmh><course_deg>126.960</course_deg><satellites>28</satellites><distance_m>23.25</distance_m></extensions></trkpt>
      <trkpt lat="52.2163882" lon="5.2904842"><ele>7.56</ele><time>2026-09-15T10:28:34Z</time><extensions><speed_kmh>0.241</speed_kmh><course_deg>0.000</course_deg><satellites>29</satellites><distance_m>0.00</distance_m></extensions></trkpt>
      <trkpt lat="52.2163620" lon="5.2905087"><ele>-1.48</ele><time>2026-09-15T10:29:14Z</time><extensions><speed_kmh>2.593</speed_kmh><course_deg>226.910</course_deg><satellites>14</satellites><distance_m>3.36</distance_m></extensions></trkpt>
      <trkpt lat="52.2163967" lon="5.2904150"><ele>0.75</ele><time>2026-09-15T10:29:20Z</time><extensions><speed_kmh>2.871</speed_kmh><course_deg>319.340</course_deg><satellites>25</satellites><distance_m>10.81</distance_m></extensions></trkpt>
       <trkpt lat="52.2163620" lon="5.2905087"><ele>-1.48</ele><time>2026-09-15T10:29:14Z</time><extensions><speed_kmh>2.593</speed_kmh><course_deg>226.910</course_deg><satellites>14</satellites><distance_m>3.36</distance_m></extensions></trkpt>
      <trkpt lat="52.2163967" lon="5.2904150"><ele>0.75</ele><time>2026-09-15T10:29:20Z</time><extensions><speed_kmh>2.871</speed_kmh><course_deg>319.340</course_deg><satellites>25</satellites><distance_m>10.81</distance_m></extensions></trkpt>
      <trkpt lat="52.2164108" lon="5.2903295"><ele>0.45</ele><time>2026-09-15T10:29:26Z</time><extensions><speed_kmh>2.167</speed_kmh><course_deg>302.800</course_deg><satellites>28</satellites><distance_m>16.85</distance_m></extensions></trkpt>
      <trkpt lat="52.2163808" lon="5.2904097"><ele>0.27</ele><time>2026-09-15T10:29:34Z</time><extensions><speed_kmh>3.945</speed_kmh><course_deg>126.960</course_deg><satellites>28</satellites><distance_m>23.25</distance_m></extensions></trkpt>
      <trkpt lat="52.2163620" lon="5.2905087"><ele>-1.48</ele><time>2026-09-15T10:29:14Z</time><extensions><speed_kmh>2.593</speed_kmh><course_deg>226.910</course_deg><satellites>14</satellites><distance_m>3.36</distance_m></extensions></trkpt>
      <trkpt lat="52.2163967" lon="5.2904150"><ele>0.75</ele><time>2026-09-15T10:29:20Z</time><extensions><speed_kmh>2.871</speed_kmh><course_deg>319.340</course_deg><satellites>25</satellites><distance_m>10.81</distance_m></extensions></trkpt>
      <trkpt lat="52.2164108" lon="5.2903295"><ele>0.45</ele><time>2026-09-15T10:29:26Z</time><extensions><speed_kmh>2.167</speed_kmh><course_deg>302.800</course_deg><satellites>28</satellites><distance_m>16.85</distance_m></extensions></trkpt>
      <trkpt lat="52.2164108" lon="5.2903295"><ele>0.45</ele><time>2026-09-15T10:29:26Z</time><extensions><speed_kmh>2.167</speed_kmh><course_deg>302.800</course_deg><satellites>28</satellites><distance_m>16.85</distance_m></extensions></trkpt>
      <trkpt lat="52.2163808" lon="5.2904097"><ele>0.27</ele><time>2026-09-15T10:29:34Z</time><extensions><speed_kmh>3.945</speed_kmh><course_deg>126.960</course_deg><satellites>28</satellites><distance_m>23.25</distance_m></extensions></trkpt>
      <trkpt lat="52.2163882" lon="5.2904842"><ele>7.56</ele><time>2026-09-15T10:28:34Z</time><extensions><speed_kmh>0.241</speed_kmh><course_deg>0.000</course_deg><satellites>29</satellites><distance_m>33.00</distance_m></extensions></trkpt>
      <trkpt lat="52.2163620" lon="5.2905087"><ele>-1.48</ele><time>2026-09-15T10:29:14Z</time><extensions><speed_kmh>2.593</speed_kmh><course_deg>226.910</course_deg><satellites>14</satellites><distance_m>34.36</distance_m></extensions></trkpt>
      <trkpt lat="52.2163967" lon="5.2904150"><ele>0.75</ele><time>2026-09-15T10:29:20Z</time><extensions><speed_kmh>2.871</speed_kmh><course_deg>319.340</course_deg><satellites>25</satellites><distance_m>35.81</distance_m></extensions></trkpt>
      <trkpt lat="52.2164108" lon="5.2903295"><ele>0.45</ele><time>2026-09-15T10:29:26Z</time><extensions><speed_kmh>2.167</speed_kmh><course_deg>302.800</course_deg><satellites>28</satellites><distance_m>36.85</distance_m></extensions></trkpt>
      <trkpt lat="52.2163808" lon="5.2904097"><ele>0.27</ele><time>2026-09-15T10:29:34Z</time><extensions><speed_kmh>3.945</speed_kmh><course_deg>126.960</course_deg><satellites>28</satellites><distance_m>43.25</distance_m></extensions></trkpt>
      <trkpt lat="52.2163620" lon="5.2905087"><ele>-1.48</ele><time>2026-09-15T10:29:14Z</time><extensions><speed_kmh>2.593</speed_kmh><course_deg>226.910</course_deg><satellites>14</satellites><distance_m>53.36</distance_m></extensions></trkpt>
      <trkpt lat="52.2163967" lon="5.2904150"><ele>0.75</ele><time>2026-09-15T10:29:20Z</time><extensions><speed_kmh>2.871</speed_kmh><course_deg>319.340</course_deg><satellites>25</satellites><distance_m>60.81</distance_m></extensions></trkpt>
      <trkpt lat="52.2164108" lon="5.2903295"><ele>0.45</ele><time>2026-09-15T10:29:26Z</time><extensions><speed_kmh>2.167</speed_kmh><course_deg>302.800</course_deg><satellites>28</satellites><distance_m>76.85</distance_m></extensions></trkpt>
      <trkpt lat="52.2163808" lon="5.2904097"><ele>0.27</ele><time>2026-09-15T10:29:34Z</time><extensions><speed_kmh>3.945</speed_kmh><course_deg>126.960</course_deg><satellites>28</satellites><distance_m>83.25</distance_m></extensions></trkpt>
      </trkseg></trk>
</gpx>
